KUIPER-00572            
1 69272U 26118F   26189.33940237  .00021063  00000+0  62448-3 0  9999
2 69272  51.8712 311.1902 0006730 255.6817 104.3421 15.34771967  7236
KUIPER-00581            
1 69273U 26118G   26189.50002315 -.01183213  00000+0 -67417-1 0  9993
2 69273  51.8834 311.2157 0007216 270.0884 185.2956 15.15299561  4883
KUIPER-00584            
1 69274U 26118H   26189.50002315 -.00042493  00000+0 -31582-2 0  9992
2 69274  51.8844 312.7175 0011101 281.1200 113.1269 15.02501136  5848
KUIPER-00587            
1 69275U 26118J   26189.33777181  .00016447  00000+0  45572-3 0  9997
2 69275  51.8637 311.1558 0007347 271.4174  88.5971 15.37069393  7238
KUIPER-00590            
1 69276U 26118K   26189.50002315 -.01951268  00000+0 -76635-1 0  9991
2 69276  51.8743 310.3074 0000181 335.8175 260.1861 15.28452160  4147
KUIPER-00592            
1 69277U 26118L   26189.50002315 -.00013780  00000+0 -47425-3 0  9996
2 69277  51.8758 310.3011 0001599 169.7095  76.3271 15.28761992  3466
KUIPER-00593            
1 69278U 26118M   26188.45703516  .00019965  00000+0  52362-3 0  9996
2 69278  51.8710 315.0332 0002897 250.4454 109.6220 15.38647938  7161
KUIPER-00594            
1 69279U 26118N   26189.36066142  .00025284  00000+0  68871-3 0  9998
2 69279  51.8725 310.5894 0001292  53.7278 306.3828 15.37330585  7242
KUIPER-00595            
1 69280U 26118P   26188.45328040  .00020726  00000+0  56703-3 0  9994
2 69280  51.8724 315.0077 0000570 336.0575  24.0385 15.37317290  7139
KUIPER-00596            
1 69281U 26118Q   26189.16668980  .00005958  00000+0  44667-3 0  9990
2 69281  51.8814 314.1163 0012747 274.3285 200.0036 15.03877036  4999
KUIPER-00597            
1 69282U 26118R   26188.80651406  .00015866  00000+0  43263-3 0  9996
2 69282  51.8656 313.6066 0006097 259.0649 100.9652 15.37605357  7150
KUIPER-00599            
1 69283U 26118S   26188.86512116  .00015366  00000+0  41633-3 0  9991
2 69283  51.8697 313.2601 0005112 263.1422  96.8983 15.37832673  7163
KUIPER-00600            
1 69284U 26118T   26188.81517442  .00011865  00000+0  32985-3 0  9994
2 69284  51.8651 313.6586 0008010 258.7199 101.2887 15.37260978  7157
KUIPER-00601            
1 69285U 26118U   26189.16668980 -.01169964  00000+0 -45099-1 0  9993
2 69285  51.8767 311.9369 0003367 241.3462 283.9433 15.28955189  5425
KUIPER-00602            
1 69286U 26118V   26188.77856102  .00025459  00000+0  66179-3 0  9996
2 69286  51.8715 313.4408 0002567 265.0112  95.0582 15.38770629  7150
KUIPER-00603            
1 69287U 26118W   26189.00002315 -.00023511  00000+0 -60830-3 0  9990
2 69287  51.8675 312.5355 0004700 251.6712 169.3081 15.38105995  5879
