{"fetched_at":"2026-07-08T17:59:23.476Z","source":"https://celestrak.org/NORAD/elements/gp.php?GROUP=kuiper&FORMAT=JSON","constellation":"kuiper","records":[{"OBJECT_NAME":"KUIPER-00572","OBJECT_ID":"2026-118F","EPOCH":"2026-07-08T08:08:44.364768","CLASSIFICATION_TYPE":"U","MEAN_MOTION":15.34771967,"ECCENTRICITY":0.000673,"INCLINATION":51.8712,"RA_OF_ASC_NODE":311.1902,"ARG_OF_PERICENTER":255.6817,"MEAN_ANOMALY":104.3421,"EPHEMERIS_TYPE":0,"NORAD_CAT_ID":69272,"ELEMENT_SET_NO":999,"REV_AT_EPOCH":723,"BSTAR":0.00062448,"MEAN_MOTION_DOT":0.00021063,"MEAN_MOTION_DDOT":0},{"OBJECT_NAME":"KUIPER-00581","OBJECT_ID":"2026-118G","EPOCH":"2026-07-08T12:00:02.000160","CLASSIFICATION_TYPE":"U","MEAN_MOTION":15.15299561,"ECCENTRICITY":0.0007216,"INCLINATION":51.8834,"RA_OF_ASC_NODE":311.2157,"ARG_OF_PERICENTER":270.0884,"MEAN_ANOMALY":185.2956,"EPHEMERIS_TYPE":0,"NORAD_CAT_ID":69273,"ELEMENT_SET_NO":999,"REV_AT_EPOCH":488,"BSTAR":-0.067417,"MEAN_MOTION_DOT":-0.01183213,"MEAN_MOTION_DDOT":0},{"OBJECT_NAME":"KUIPER-00584","OBJECT_ID":"2026-118H","EPOCH":"2026-07-08T12:00:02.000160","CLASSIFICATION_TYPE":"U","MEAN_MOTION":15.02501136,"ECCENTRICITY":0.0011101,"INCLINATION":51.8844,"RA_OF_ASC_NODE":312.7175,"ARG_OF_PERICENTER":281.12,"MEAN_ANOMALY":113.1269,"EPHEMERIS_TYPE":0,"NORAD_CAT_ID":69274,"ELEMENT_SET_NO":999,"REV_AT_EPOCH":584,"BSTAR":-0.0031582,"MEAN_MOTION_DOT":-0.00042493,"MEAN_MOTION_DDOT":0},{"OBJECT_NAME":"KUIPER-00587","OBJECT_ID":"2026-118J","EPOCH":"2026-07-08T08:06:23.484384","CLASSIFICATION_TYPE":"U","MEAN_MOTION":15.37069393,"ECCENTRICITY":0.0007347,"INCLINATION":51.8637,"RA_OF_ASC_NODE":311.1558,"ARG_OF_PERICENTER":271.4174,"MEAN_ANOMALY":88.5971,"EPHEMERIS_TYPE":0,"NORAD_CAT_ID":69275,"ELEMENT_SET_NO":999,"REV_AT_EPOCH":723,"BSTAR":0.00045572,"MEAN_MOTION_DOT":0.00016447,"MEAN_MOTION_DDOT":0},{"OBJECT_NAME":"KUIPER-00590","OBJECT_ID":"2026-118K","EPOCH":"2026-07-08T12:00:02.000160","CLASSIFICATION_TYPE":"U","MEAN_MOTION":15.2845216,"ECCENTRICITY":0.0000181,"INCLINATION":51.8743,"RA_OF_ASC_NODE":310.3074,"ARG_OF_PERICENTER":335.8175,"MEAN_ANOMALY":260.1861,"EPHEMERIS_TYPE":0,"NORAD_CAT_ID":69276,"ELEMENT_SET_NO":999,"REV_AT_EPOCH":414,"BSTAR":-0.076635,"MEAN_MOTION_DOT":-0.01951268,"MEAN_MOTION_DDOT":0},{"OBJECT_NAME":"KUIPER-00592","OBJECT_ID":"2026-118L","EPOCH":"2026-07-08T12:00:02.000160","CLASSIFICATION_TYPE":"U","MEAN_MOTION":15.28761992,"ECCENTRICITY":0.0001599,"INCLINATION":51.8758,"RA_OF_ASC_NODE":310.3011,"ARG_OF_PERICENTER":169.7095,"MEAN_ANOMALY":76.3271,"EPHEMERIS_TYPE":0,"NORAD_CAT_ID":69277,"ELEMENT_SET_NO":999,"REV_AT_EPOCH":346,"BSTAR":-0.00047425,"MEAN_MOTION_DOT":-0.0001378,"MEAN_MOTION_DDOT":0},{"OBJECT_NAME":"KUIPER-00593","OBJECT_ID":"2026-118M","EPOCH":"2026-07-07T10:58:07.837824","CLASSIFICATION_TYPE":"U","MEAN_MOTION":15.38647938,"ECCENTRICITY":0.00028979,"INCLINATION":51.871,"RA_OF_ASC_NODE":315.0332,"ARG_OF_PERICENTER":250.4454,"MEAN_ANOMALY":109.622,"EPHEMERIS_TYPE":0,"NORAD_CAT_ID":69278,"ELEMENT_SET_NO":999,"REV_AT_EPOCH":716,"BSTAR":0.00052362363,"MEAN_MOTION_DOT":0.00019965,"MEAN_MOTION_DDOT":0},{"OBJECT_NAME":"KUIPER-00594","OBJECT_ID":"2026-118N","EPOCH":"2026-07-08T08:39:21.146688","CLASSIFICATION_TYPE":"U","MEAN_MOTION":15.37330585,"ECCENTRICITY":0.0001292,"INCLINATION":51.8725,"RA_OF_ASC_NODE":310.5894,"ARG_OF_PERICENTER":53.7278,"MEAN_ANOMALY":306.3828,"EPHEMERIS_TYPE":0,"NORAD_CAT_ID":69279,"ELEMENT_SET_NO":999,"REV_AT_EPOCH":724,"BSTAR":0.00068871,"MEAN_MOTION_DOT":0.00025284,"MEAN_MOTION_DDOT":0},{"OBJECT_NAME":"KUIPER-00595","OBJECT_ID":"2026-118P","EPOCH":"2026-07-07T10:52:43.426560","CLASSIFICATION_TYPE":"U","MEAN_MOTION":15.3731729,"ECCENTRICITY":0.00005705,"INCLINATION":51.8724,"RA_OF_ASC_NODE":315.0077,"ARG_OF_PERICENTER":336.0575,"MEAN_ANOMALY":24.0385,"EPHEMERIS_TYPE":0,"NORAD_CAT_ID":69280,"ELEMENT_SET_NO":999,"REV_AT_EPOCH":713,"BSTAR":0.00056703321,"MEAN_MOTION_DOT":0.00020726,"MEAN_MOTION_DDOT":0},{"OBJECT_NAME":"KUIPER-00596","OBJECT_ID":"2026-118Q","EPOCH":"2026-07-08T04:00:01.998720","CLASSIFICATION_TYPE":"U","MEAN_MOTION":15.03877036,"ECCENTRICITY":0.0012747,"INCLINATION":51.8814,"RA_OF_ASC_NODE":314.1163,"ARG_OF_PERICENTER":274.3285,"MEAN_ANOMALY":200.0036,"EPHEMERIS_TYPE":0,"NORAD_CAT_ID":69281,"ELEMENT_SET_NO":999,"REV_AT_EPOCH":499,"BSTAR":0.00044667,"MEAN_MOTION_DOT":0.00005958,"MEAN_MOTION_DDOT":0},{"OBJECT_NAME":"KUIPER-00597","OBJECT_ID":"2026-118R","EPOCH":"2026-07-07T19:21:22.814784","CLASSIFICATION_TYPE":"U","MEAN_MOTION":15.37605357,"ECCENTRICITY":0.0006097,"INCLINATION":51.8656,"RA_OF_ASC_NODE":313.6066,"ARG_OF_PERICENTER":259.0649,"MEAN_ANOMALY":100.9652,"EPHEMERIS_TYPE":0,"NORAD_CAT_ID":69282,"ELEMENT_SET_NO":999,"REV_AT_EPOCH":715,"BSTAR":0.00043263,"MEAN_MOTION_DOT":0.00015866,"MEAN_MOTION_DDOT":0},{"OBJECT_NAME":"KUIPER-00599","OBJECT_ID":"2026-118S","EPOCH":"2026-07-07T20:45:46.468224","CLASSIFICATION_TYPE":"U","MEAN_MOTION":15.37832673,"ECCENTRICITY":0.0005112,"INCLINATION":51.8697,"RA_OF_ASC_NODE":313.2601,"ARG_OF_PERICENTER":263.1422,"MEAN_ANOMALY":96.8983,"EPHEMERIS_TYPE":0,"NORAD_CAT_ID":69283,"ELEMENT_SET_NO":999,"REV_AT_EPOCH":716,"BSTAR":0.00041633,"MEAN_MOTION_DOT":0.00015366,"MEAN_MOTION_DDOT":0},{"OBJECT_NAME":"KUIPER-00600","OBJECT_ID":"2026-118T","EPOCH":"2026-07-07T19:33:51.069888","CLASSIFICATION_TYPE":"U","MEAN_MOTION":15.37260978,"ECCENTRICITY":0.000801,"INCLINATION":51.8651,"RA_OF_ASC_NODE":313.6586,"ARG_OF_PERICENTER":258.7199,"MEAN_ANOMALY":101.2887,"EPHEMERIS_TYPE":0,"NORAD_CAT_ID":69284,"ELEMENT_SET_NO":999,"REV_AT_EPOCH":715,"BSTAR":0.00032985,"MEAN_MOTION_DOT":0.00011865,"MEAN_MOTION_DDOT":0},{"OBJECT_NAME":"KUIPER-00601","OBJECT_ID":"2026-118U","EPOCH":"2026-07-08T04:00:01.998720","CLASSIFICATION_TYPE":"U","MEAN_MOTION":15.28955189,"ECCENTRICITY":0.0003367,"INCLINATION":51.8767,"RA_OF_ASC_NODE":311.9369,"ARG_OF_PERICENTER":241.3462,"MEAN_ANOMALY":283.9433,"EPHEMERIS_TYPE":0,"NORAD_CAT_ID":69285,"ELEMENT_SET_NO":999,"REV_AT_EPOCH":542,"BSTAR":-0.045099,"MEAN_MOTION_DOT":-0.01169964,"MEAN_MOTION_DDOT":0},{"OBJECT_NAME":"KUIPER-00602","OBJECT_ID":"2026-118V","EPOCH":"2026-07-07T18:41:07.672128","CLASSIFICATION_TYPE":"U","MEAN_MOTION":15.38770629,"ECCENTRICITY":0.0002567,"INCLINATION":51.8715,"RA_OF_ASC_NODE":313.4408,"ARG_OF_PERICENTER":265.0112,"MEAN_ANOMALY":95.0582,"EPHEMERIS_TYPE":0,"NORAD_CAT_ID":69286,"ELEMENT_SET_NO":999,"REV_AT_EPOCH":715,"BSTAR":0.00066179,"MEAN_MOTION_DOT":0.00025459,"MEAN_MOTION_DDOT":0},{"OBJECT_NAME":"KUIPER-00603","OBJECT_ID":"2026-118W","EPOCH":"2026-07-08T00:00:02.000160","CLASSIFICATION_TYPE":"U","MEAN_MOTION":15.38105995,"ECCENTRICITY":0.00047,"INCLINATION":51.8675,"RA_OF_ASC_NODE":312.5355,"ARG_OF_PERICENTER":251.6712,"MEAN_ANOMALY":169.3081,"EPHEMERIS_TYPE":0,"NORAD_CAT_ID":69287,"ELEMENT_SET_NO":999,"REV_AT_EPOCH":587,"BSTAR":-0.0006083,"MEAN_MOTION_DOT":-0.00023511,"MEAN_MOTION_DDOT":0}]}
